[{"OBJECT_NAME":"STARLINK-2531","OBJECT_ID":"2021-040BH","EPOCH":"2026-03-09T15:39:07.895808","MEAN_MOTION":15.30179272,"ECCENTRICITY":0.00011615,"INCLINATION":53.1602,"RA_OF_ASC_NODE":194.2459,"ARG_OF_PERICENTER":115.6639,"MEAN_ANOMALY":244.4482,"EPHEMERIS_TYPE":0,"CLASSIFICATION_TYPE":"U","NORAD_CAT_ID":48483,"ELEMENT_SET_NO":999,"REV_AT_EPOCH":26645,"BSTAR":-9.0250944e-5,"MEAN_MOTION_DOT":-3.029e-5,"MEAN_MOTION_DDOT":0},{"OBJECT_NAME":"OBJECT H","OBJECT_ID":"2025-055H","EPOCH":"2026-03-09T23:29:50.051328","MEAN_MOTION":15.30330066,"ECCENTRICITY":0.00075967,"INCLINATION":97.636,"RA_OF_ASC_NODE":211.9572,"ARG_OF_PERICENTER":140.4354,"MEAN_ANOMALY":219.7441,"EPHEMERIS_TYPE":0,"CLASSIFICATION_TYPE":"U","NORAD_CAT_ID":63298,"ELEMENT_SET_NO":999,"REV_AT_EPOCH":5423,"BSTAR":0.0015582864,"MEAN_MOTION_DOT":0.00045901,"MEAN_MOTION_DDOT":0}]
